SKYKRAFT-1A             
1 55054U 23001AX  26068.71064616  .00008177  00000+0  30069-3 0  9991
2 55054  97.3349 127.6290 0011277 121.5092 238.7251 15.28083228176529
STARLINK-34050          
1 64331U 25124Q   26068.45214715  .00022104  00000+0  81013-3 0  9996
2 64331  42.9993 123.0924 0000671 244.0897 115.9885 15.27588946 42800
